KUIPER-00152            
1 65772U 25217L   25362.91668981 -.01177589  00000+0 -63050-1 0  9994
2 65772  51.8873 346.8788 0003450  73.9431 316.2211 15.17487947  5031
KUIPER-00153            
1 65773U 25217M   25362.30401250  .00019071  00000+0  11244-2 0  9999
2 65773  51.8793 359.7982 0013442  74.6811 285.5650 15.11517524 14296
KUIPER-00155            
1 65774U 25217N   25362.68817928 -.00264684  00000+0 -73746-2 0  9993
2 65774  51.8692 347.5710 0009155  75.4225 284.7776 15.37227153 14499
KUIPER-00156            
1 65775U 25217P   25362.91668981  .00068902  00000+0  22628-2 0  9999
2 65775  51.8755 345.6593 0002567  74.9259 155.3335 15.30934711  5367
KUIPER-00158            
1 65776U 25217Q   25362.91668981  .00033419  00000+0  43783-2 0  9990
2 65776  51.8980 358.5521 0000762  66.1668 333.0697 14.80054372  5810
KUIPER-00163            
1 65777U 25217R   25362.70323700  .00077030  00000+0  10285-1 0  9992
2 65777  51.9017   1.9924 0001506  94.5310 265.5824 14.78821658 14294
KUIPER-00165            
1 65778U 25217S   25362.91668981 -.01014513  00000+0 -85258-1 0  9991
2 65778  51.8932 349.8687 0006029  86.3702 165.3864 15.00705899  4507
KUIPER-00166            
1 65779U 25217T   25362.68736620  .00045123  00000+0  11892-2 0  9994
2 65779  51.8717 346.8742 0004387  56.5891 303.5515 15.38055648 14502
