<?xml version="1.0" encoding="UTF-8"?>
<ndm xmlns:xsi="http://www.w3.org/2001/XMLSchema-instance" xsi:noNamespaceSchemaLocation="https://sanaregistry.org/r/ndmxml_unqualified/ndmxml-2.0.0-master-2.0.xsd">
<omm id="CCSDS_OMM_VERS" version="2.0">
<header><CREATION_DATE/><ORIGINATOR/></header><body><segment><metadata><OBJECT_NAME>KUIPER-00152</OBJECT_NAME><OBJECT_ID>2025-217L</OBJECT_ID><CENTER_NAME>EARTH</CENTER_NAME><REF_FRAME>TEME</REF_FRAME><TIME_SYSTEM>UTC</TIME_SYSTEM><MEAN_ELEMENT_THEORY>SGP4</MEAN_ELEMENT_THEORY></metadata><data><meanElements><EPOCH>2025-12-28T22:00:01.999584</EPOCH><MEAN_MOTION>15.17487947</MEAN_MOTION><ECCENTRICITY>.00034503</ECCENTRICITY><INCLINATION>51.8873</INCLINATION><RA_OF_ASC_NODE>346.8788</RA_OF_ASC_NODE><ARG_OF_PERICENTER>73.9431</ARG_OF_PERICENTER><MEAN_ANOMALY>316.2211</MEAN_ANOMALY></meanElements><tleParameters><EPHEMERIS_TYPE>0</EPHEMERIS_TYPE><CLASSIFICATION_TYPE>U</CLASSIFICATION_TYPE><NORAD_CAT_ID>65772</NORAD_CAT_ID><ELEMENT_SET_NO>999</ELEMENT_SET_NO><REV_AT_EPOCH>503</REV_AT_EPOCH><BSTAR>-.6305023E-1</BSTAR><MEAN_MOTION_DOT>-.1177589E-1</MEAN_MOTION_DOT><MEAN_MOTION_DDOT>0</MEAN_MOTION_DDOT></tleParameters></data></segment></body></omm>
<omm id="CCSDS_OMM_VERS" version="2.0">
<header><CREATION_DATE/><ORIGINATOR/></header><body><segment><metadata><OBJECT_NAME>KUIPER-00153</OBJECT_NAME><OBJECT_ID>2025-217M</OBJECT_ID><CENTER_NAME>EARTH</CENTER_NAME><REF_FRAME>TEME</REF_FRAME><TIME_SYSTEM>UTC</TIME_SYSTEM><MEAN_ELEMENT_THEORY>SGP4</MEAN_ELEMENT_THEORY></metadata><data><meanElements><EPOCH>2025-12-28T07:17:46.680000</EPOCH><MEAN_MOTION>15.11517524</MEAN_MOTION><ECCENTRICITY>.0013442</ECCENTRICITY><INCLINATION>51.8793</INCLINATION><RA_OF_ASC_NODE>359.7982</RA_OF_ASC_NODE><ARG_OF_PERICENTER>74.6811</ARG_OF_PERICENTER><MEAN_ANOMALY>285.5650</MEAN_ANOMALY></meanElements><tleParameters><EPHEMERIS_TYPE>0</EPHEMERIS_TYPE><CLASSIFICATION_TYPE>U</CLASSIFICATION_TYPE><NORAD_CAT_ID>65773</NORAD_CAT_ID><ELEMENT_SET_NO>999</ELEMENT_SET_NO><REV_AT_EPOCH>1429</REV_AT_EPOCH><BSTAR>.11244E-2</BSTAR><MEAN_MOTION_DOT>.19071E-3</MEAN_MOTION_DOT><MEAN_MOTION_DDOT>0</MEAN_MOTION_DDOT></tleParameters></data></segment></body></omm>
<omm id="CCSDS_OMM_VERS" version="2.0">
<header><CREATION_DATE/><ORIGINATOR/></header><body><segment><metadata><OBJECT_NAME>KUIPER-00155</OBJECT_NAME><OBJECT_ID>2025-217N</OBJECT_ID><CENTER_NAME>EARTH</CENTER_NAME><REF_FRAME>TEME</REF_FRAME><TIME_SYSTEM>UTC</TIME_SYSTEM><MEAN_ELEMENT_THEORY>SGP4</MEAN_ELEMENT_THEORY></metadata><data><meanElements><EPOCH>2025-12-28T16:30:58.689792</EPOCH><MEAN_MOTION>15.37227153</MEAN_MOTION><ECCENTRICITY>.00091552</ECCENTRICITY><INCLINATION>51.8692</INCLINATION><RA_OF_ASC_NODE>347.5710</RA_OF_ASC_NODE><ARG_OF_PERICENTER>75.4225</ARG_OF_PERICENTER><MEAN_ANOMALY>284.7776</MEAN_ANOMALY></meanElements><tleParameters><EPHEMERIS_TYPE>0</EPHEMERIS_TYPE><CLASSIFICATION_TYPE>U</CLASSIFICATION_TYPE><NORAD_CAT_ID>65774</NORAD_CAT_ID><ELEMENT_SET_NO>999</ELEMENT_SET_NO><REV_AT_EPOCH>1449</REV_AT_EPOCH><BSTAR>-.73746265E-2</BSTAR><MEAN_MOTION_DOT>-.264684E-2</MEAN_MOTION_DOT><MEAN_MOTION_DDOT>0</MEAN_MOTION_DDOT></tleParameters></data></segment></body></omm>
<omm id="CCSDS_OMM_VERS" version="2.0">
<header><CREATION_DATE/><ORIGINATOR/></header><body><segment><metadata><OBJECT_NAME>KUIPER-00156</OBJECT_NAME><OBJECT_ID>2025-217P</OBJECT_ID><CENTER_NAME>EARTH</CENTER_NAME><REF_FRAME>TEME</REF_FRAME><TIME_SYSTEM>UTC</TIME_SYSTEM><MEAN_ELEMENT_THEORY>SGP4</MEAN_ELEMENT_THEORY></metadata><data><meanElements><EPOCH>2025-12-28T22:00:01.999584</EPOCH><MEAN_MOTION>15.30934711</MEAN_MOTION><ECCENTRICITY>.0002567</ECCENTRICITY><INCLINATION>51.8755</INCLINATION><RA_OF_ASC_NODE>345.6593</RA_OF_ASC_NODE><ARG_OF_PERICENTER>74.9259</ARG_OF_PERICENTER><MEAN_ANOMALY>155.3335</MEAN_ANOMALY></meanElements><tleParameters><EPHEMERIS_TYPE>0</EPHEMERIS_TYPE><CLASSIFICATION_TYPE>U</CLASSIFICATION_TYPE><NORAD_CAT_ID>65775</NORAD_CAT_ID><ELEMENT_SET_NO>999</ELEMENT_SET_NO><REV_AT_EPOCH>536</REV_AT_EPOCH><BSTAR>.22627865E-2</BSTAR><MEAN_MOTION_DOT>.68902E-3</MEAN_MOTION_DOT><MEAN_MOTION_DDOT>0</MEAN_MOTION_DDOT></tleParameters></data></segment></body></omm>
<omm id="CCSDS_OMM_VERS" version="2.0">
<header><CREATION_DATE/><ORIGINATOR/></header><body><segment><metadata><OBJECT_NAME>KUIPER-00158</OBJECT_NAME><OBJECT_ID>2025-217Q</OBJECT_ID><CENTER_NAME>EARTH</CENTER_NAME><REF_FRAME>TEME</REF_FRAME><TIME_SYSTEM>UTC</TIME_SYSTEM><MEAN_ELEMENT_THEORY>SGP4</MEAN_ELEMENT_THEORY></metadata><data><meanElements><EPOCH>2025-12-28T22:00:01.999584</EPOCH><MEAN_MOTION>14.80054372</MEAN_MOTION><ECCENTRICITY>.00007626</ECCENTRICITY><INCLINATION>51.8980</INCLINATION><RA_OF_ASC_NODE>358.5521</RA_OF_ASC_NODE><ARG_OF_PERICENTER>66.1668</ARG_OF_PERICENTER><MEAN_ANOMALY>333.0697</MEAN_ANOMALY></meanElements><tleParameters><EPHEMERIS_TYPE>0</EPHEMERIS_TYPE><CLASSIFICATION_TYPE>U</CLASSIFICATION_TYPE><NORAD_CAT_ID>65776</NORAD_CAT_ID><ELEMENT_SET_NO>999</ELEMENT_SET_NO><REV_AT_EPOCH>581</REV_AT_EPOCH><BSTAR>.43782856E-2</BSTAR><MEAN_MOTION_DOT>.33419E-3</MEAN_MOTION_DOT><MEAN_MOTION_DDOT>0</MEAN_MOTION_DDOT></tleParameters></data></segment></body></omm>
<omm id="CCSDS_OMM_VERS" version="2.0">
<header><CREATION_DATE/><ORIGINATOR/></header><body><segment><metadata><OBJECT_NAME>KUIPER-00163</OBJECT_NAME><OBJECT_ID>2025-217R</OBJECT_ID><CENTER_NAME>EARTH</CENTER_NAME><REF_FRAME>TEME</REF_FRAME><TIME_SYSTEM>UTC</TIME_SYSTEM><MEAN_ELEMENT_THEORY>SGP4</MEAN_ELEMENT_THEORY></metadata><data><meanElements><EPOCH>2025-12-28T16:52:39.676800</EPOCH><MEAN_MOTION>14.78821658</MEAN_MOTION><ECCENTRICITY>.00015068</ECCENTRICITY><INCLINATION>51.9017</INCLINATION><RA_OF_ASC_NODE>1.9924</RA_OF_ASC_NODE><ARG_OF_PERICENTER>94.5310</ARG_OF_PERICENTER><MEAN_ANOMALY>265.5824</MEAN_ANOMALY></meanElements><tleParameters><EPHEMERIS_TYPE>0</EPHEMERIS_TYPE><CLASSIFICATION_TYPE>U</CLASSIFICATION_TYPE><NORAD_CAT_ID>65777</NORAD_CAT_ID><ELEMENT_SET_NO>999</ELEMENT_SET_NO><REV_AT_EPOCH>1429</REV_AT_EPOCH><BSTAR>.10285356E-1</BSTAR><MEAN_MOTION_DOT>.7703E-3</MEAN_MOTION_DOT><MEAN_MOTION_DDOT>0</MEAN_MOTION_DDOT></tleParameters></data></segment></body></omm>
<omm id="CCSDS_OMM_VERS" version="2.0">
<header><CREATION_DATE/><ORIGINATOR/></header><body><segment><metadata><OBJECT_NAME>KUIPER-00165</OBJECT_NAME><OBJECT_ID>2025-217S</OBJECT_ID><CENTER_NAME>EARTH</CENTER_NAME><REF_FRAME>TEME</REF_FRAME><TIME_SYSTEM>UTC</TIME_SYSTEM><MEAN_ELEMENT_THEORY>SGP4</MEAN_ELEMENT_THEORY></metadata><data><meanElements><EPOCH>2025-12-28T22:00:01.999584</EPOCH><MEAN_MOTION>15.00705899</MEAN_MOTION><ECCENTRICITY>.00060293</ECCENTRICITY><INCLINATION>51.8932</INCLINATION><RA_OF_ASC_NODE>349.8687</RA_OF_ASC_NODE><ARG_OF_PERICENTER>86.3702</ARG_OF_PERICENTER><MEAN_ANOMALY>165.3864</MEAN_ANOMALY></meanElements><tleParameters><EPHEMERIS_TYPE>0</EPHEMERIS_TYPE><CLASSIFICATION_TYPE>U</CLASSIFICATION_TYPE><NORAD_CAT_ID>65778</NORAD_CAT_ID><ELEMENT_SET_NO>999</ELEMENT_SET_NO><REV_AT_EPOCH>450</REV_AT_EPOCH><BSTAR>-.85258022E-1</BSTAR><MEAN_MOTION_DOT>-.1014513E-1</MEAN_MOTION_DOT><MEAN_MOTION_DDOT>0</MEAN_MOTION_DDOT></tleParameters></data></segment></body></omm>
<omm id="CCSDS_OMM_VERS" version="2.0">
<header><CREATION_DATE/><ORIGINATOR/></header><body><segment><metadata><OBJECT_NAME>KUIPER-00166</OBJECT_NAME><OBJECT_ID>2025-217T</OBJECT_ID><CENTER_NAME>EARTH</CENTER_NAME><REF_FRAME>TEME</REF_FRAME><TIME_SYSTEM>UTC</TIME_SYSTEM><MEAN_ELEMENT_THEORY>SGP4</MEAN_ELEMENT_THEORY></metadata><data><meanElements><EPOCH>2025-12-28T16:29:48.439680</EPOCH><MEAN_MOTION>15.38055648</MEAN_MOTION><ECCENTRICITY>.00043876</ECCENTRICITY><INCLINATION>51.8717</INCLINATION><RA_OF_ASC_NODE>346.8742</RA_OF_ASC_NODE><ARG_OF_PERICENTER>56.5891</ARG_OF_PERICENTER><MEAN_ANOMALY>303.5515</MEAN_ANOMALY></meanElements><tleParameters><EPHEMERIS_TYPE>0</EPHEMERIS_TYPE><CLASSIFICATION_TYPE>U</CLASSIFICATION_TYPE><NORAD_CAT_ID>65779</NORAD_CAT_ID><ELEMENT_SET_NO>999</ELEMENT_SET_NO><REV_AT_EPOCH>1450</REV_AT_EPOCH><BSTAR>.1189199E-2</BSTAR><MEAN_MOTION_DOT>.45123E-3</MEAN_MOTION_DOT><MEAN_MOTION_DDOT>0</MEAN_MOTION_DDOT></tleParameters></data></segment></body></omm>

</ndm>
